[{"OBJECT_NAME":"STARLINK-33694","OBJECT_ID":"2025-065J","EPOCH":"2026-03-09T12:03:46.278144","MEAN_MOTION":15.27591151,"ECCENTRICITY":9.871e-5,"INCLINATION":43.0014,"RA_OF_ASC_NODE":107.9282,"ARG_OF_PERICENTER":268.3368,"MEAN_ANOMALY":91.7371,"EPHEMERIS_TYPE":0,"CLASSIFICATION_TYPE":"U","NORAD_CAT_ID":63407,"ELEMENT_SET_NO":999,"REV_AT_EPOCH":5281,"BSTAR":0.0009160915,"MEAN_MOTION_DOT":0.00025041,"MEAN_MOTION_DDOT":0},{"OBJECT_NAME":"DMSP 5D-2 F14 DEB","OBJECT_ID":"1997-012E","EPOCH":"2026-03-09T23:05:42.500544","MEAN_MOTION":15.25086034,"ECCENTRICITY":0.00083151,"INCLINATION":98.7933,"RA_OF_ASC_NODE":208.6058,"ARG_OF_PERICENTER":272.9178,"MEAN_ANOMALY":87.1104,"EPHEMERIS_TYPE":0,"CLASSIFICATION_TYPE":"U","NORAD_CAT_ID":24778,"ELEMENT_SET_NO":999,"REV_AT_EPOCH":51788,"BSTAR":0.0054670036,"MEAN_MOTION_DOT":0.00139299,"MEAN_MOTION_DDOT":0}]
